[{"OBJECT_NAME":"STARLINK-30781","OBJECT_ID":"2023-162F","EPOCH":"2026-03-09T22:00:01.999584","MEAN_MOTION":15.23295152,"ECCENTRICITY":0.00010515,"INCLINATION":43.0003,"RA_OF_ASC_NODE":130.9672,"ARG_OF_PERICENTER":284.2671,"MEAN_ANOMALY":110.6046,"EPHEMERIS_TYPE":0,"CLASSIFICATION_TYPE":"U","NORAD_CAT_ID":58123,"ELEMENT_SET_NO":999,"REV_AT_EPOCH":578,"BSTAR":0.076250753,"MEAN_MOTION_DOT":0.02052153,"MEAN_MOTION_DDOT":0},{"OBJECT_NAME":"SCOUT X-1 DEB","OBJECT_ID":"1961-004F","EPOCH":"2026-03-01T00:08:32.328672","MEAN_MOTION":15.46428893,"ECCENTRICITY":0.00336749,"INCLINATION":39.0085,"RA_OF_ASC_NODE":274.0703,"ARG_OF_PERICENTER":55.969,"MEAN_ANOMALY":304.4293,"EPHEMERIS_TYPE":0,"CLASSIFICATION_TYPE":"U","NORAD_CAT_ID":3927,"ELEMENT_SET_NO":999,"REV_AT_EPOCH":11451,"BSTAR":0.009395543,"MEAN_MOTION_DOT":0.00520474,"MEAN_MOTION_DDOT":0}]
